OBJECT_NAME,OBJECT_ID,EPOCH,MEAN_MOTION,ECCENTRICITY,INCLINATION,RA_OF_ASC_NODE,ARG_OF_PERICENTER,MEAN_ANOMALY,EPHEMERIS_TYPE,CLASSIFICATION_TYPE,NORAD_CAT_ID,ELEMENT_SET_NO,REV_AT_EPOCH,BSTAR,MEAN_MOTION_DOT,MEAN_MOTION_DDOT
AISTECHSAT 2,2018-099L,2026-06-09T02:22:55.816896,15.15366437,.0003851,97.4297,208.3104,347.0992,13.0141,0,U,43768,999,41105,.23599E-3,.4387E-4,0
FOX-1CLIFF (AO-95),2018-099N,2026-06-09T01:56:46.237344,15.26538897,.0008826,97.4389,220.3580,27.1898,332.9801,0,U,43770,999,41198,.34498E-3,.8954E-4,0
RANGE-A,2018-099R,2026-06-09T02:40:20.551008,15.13320295,.0010716,97.3972,202.9271,24.9290,335.2457,0,U,43773,999,41127,.21978E-3,.3856E-4,0
SNUSAT-2,2018-099AA,2026-06-09T02:44:09.201696,15.21715725,.000914,97.4065,213.6222,331.4678,28.6057,0,U,43782,999,41180,.2861E-3,.6416E-4,0
SNUGLITE,2018-099AC,2026-06-09T02:00:55.687968,15.27000483,.0001714,97.3875,214.4446,349.4298,10.6904,0,U,43784,999,41208,.37411E-3,.9845E-4,0
ITASAT,2018-099AE,2026-06-09T02:48:06.578784,15.18954369,.0012984,97.4032,211.7901,28.2656,331.9281,0,U,43786,999,41168,.2528E-3,.5227E-4,0
EAGLET-I,2018-099AJ,2026-06-09T02:47:07.366272,15.12878232,.0011504,97.4234,209.9985,22.3123,337.8606,0,U,43790,999,41111,.17348E-3,.2992E-4,0
ESEO,2018-099AL,2026-06-09T01:33:16.388928,15.04214984,.001217,97.3965,197.8007,7.5925,352.5483,0,U,43792,999,41058,.12032E-3,.1616E-4,0
THEA,2018-099AQ,2026-06-09T04:23:57.911424,15.34744351,.0005972,97.4443,229.7992,319.1795,40.9000,0,U,43796,999,41146,.45891E-3,.15396E-3,0
ASTROCAST 0.1,2018-099AS,2026-06-09T02:57:27.860832,15.49002166,.0004498,97.4377,238.3723,234.1046,125.9788,0,U,43798,999,41318,.59815E-3,.32371E-3,0
JY1SAT (JO-97),2018-099AX,2026-06-09T03:14:32.466336,15.33397143,.0004209,97.4132,222.9432,303.3283,56.7556,0,U,43803,999,41239,.46531E-3,.14955E-3,0
SUOMI-100,2018-099AY,2026-06-09T02:06:07.725024,15.28231571,.0008531,97.4188,220.5119,313.2979,46.7548,0,U,43804,999,41218,.33836E-3,.9244E-4,0
CENTAURI-1,2018-099BD,2026-06-09T02:08:26.859264,15.16284228,.0013943,97.4224,211.9829,3.0927,357.0389,0,U,43809,999,41127,.25954E-3,.497E-4,0
GLOBAL-2,2018-099BG,2026-06-09T02:46:32.749248,15.08624266,.0006175,97.3561,196.9649,167.3470,192.7915,0,U,43812,999,41069,.2181E-3,.3354E-4,0
SEAHAWK-1,2018-099BQ,2026-06-09T02:51:48.074688,15.22675876,.0007441,97.3962,212.7283,348.2898,11.8164,0,U,43820,999,41130,.31629E-3,.7303E-4,0
SAUDISAT 5A,2018-102A,2026-06-09T04:12:35.456832,15.27963887,.0010426,97.3071,221.9110,154.0997,206.0766,0,U,43831,999,41445,.17818E-3,.4795E-4,0
SAUDISAT 5B,2018-102C,2026-06-09T04:41:40.862976,15.28225174,.0011068,97.3179,224.9860,156.6200,203.5545,0,U,43833,999,41457,.16543E-3,.4483E-4,0
ISAT,2018-111D,2026-06-08T18:48:34.749792,15.63806706,.000201,97.5884,94.3673,49.8617,310.2817,0,U,43879,999,40985,.99554E-3,.93925E-3,0
UWE-4,2018-111E,2026-06-08T17:39:01.183968,15.45597672,.0007085,97.5854,87.7396,15.0599,345.0859,0,U,43880,999,40947,.71406E-3,.34399E-3,0
D-STAR ONE (SPARROW),2018-111F,2026-06-08T19:10:18.516288,15.72054596,.0004819,97.6116,99.8565,100.2309,259.9497,0,U,43881,999,41005,.10994E-2,.145912E-2,0
JILIN-1 09,2019-005B,2026-06-09T03:37:36.869088,15.20443868,.0003759,97.4731,255.1831,110.5781,249.5857,0,U,43943,999,40792,.19897E-3,.4272E-4,0
JILIN-1 10,2019-005E,2026-06-09T04:34:29.313984,15.25636864,.0006803,97.4775,258.9959,313.5928,46.4745,0,U,43946,999,40809,.19215E-3,.4815E-4,0
EGYPTSAT-A (MISRSAT-A),2019-008A,2026-06-09T04:36:04.188096,14.72297709,.0001193,98.0097,225.0632,88.6753,271.4591,0,U,44047,999,39206,.82753E-4,.474E-5,0
EMISAT,2019-018A,2026-06-09T04:10:31.471968,14.43683815,.0017352,98.4645,219.0181,240.2795,119.6669,0,U,44078,999,37890,.87311E-4,.253E-5,0
JILIN-1 GAOFEN 3A,2019-032C,2026-06-09T03:11:27.281760,15.32455129,.0006467,44.9757,41.2577,257.0312,102.9851,0,U,44312,999,38660,.33866E-3,.1053E-3,0
WT 1B,2019-032G,2026-06-09T03:41:07.456992,15.27028581,.0009342,44.9729,104.7844,207.6206,152.4181,0,U,44316,999,38585,.3636E-3,.9552E-4,0
PROX-1,2019-036A,2026-06-07T18:02:21.058368,14.90390005,.00053543,23.9933,177.2711,281.8651,78.1248,0,U,44339,999,37206,.13165199E-2,.1343E-3,0
NPSAT1,2019-036B,2026-06-08T23:55:08.402592,14.74509476,.0007903,23.9995,271.1035,114.6467,245.4852,0,U,44340,999,37128,.60957E-3,.4393E-4,0
