AISTECHSAT 2            
1 43768U 18099L   26160.09925714  .00004387  00000+0  23599-3 0  9999
2 43768  97.4297 208.3104 0003851 347.0992  13.0141 15.15366437411059
FOX-1CLIFF (AO-95)      
1 43770U 18099N   26160.08109071  .00008954  00000+0  34498-3 0  9995
2 43770  97.4389 220.3580 0008826  27.1898 332.9801 15.26538897411985
RANGE-A                 
1 43773U 18099R   26160.11134897  .00003856  00000+0  21978-3 0  9991
2 43773  97.3972 202.9271 0010716  24.9290 335.2457 15.13320295411272
SNUSAT-2                
1 43782U 18099AA  26160.11399539  .00006416  00000+0  28610-3 0  9992
2 43782  97.4065 213.6222 0009140 331.4678  28.6057 15.21715725411809
SNUGLITE                
1 43784U 18099AC  26160.08397787  .00009845  00000+0  37411-3 0  9991
2 43784  97.3875 214.4446 0001714 349.4298  10.6904 15.27000483412089
ITASAT                  
1 43786U 18099AE  26160.11674281  .00005227  00000+0  25280-3 0  9995
2 43786  97.4032 211.7901 0012984  28.2656 331.9281 15.18954369411687
EAGLET-I                
1 43790U 18099AJ  26160.11605748  .00002992  00000+0  17348-3 0  9994
2 43790  97.4234 209.9985 0011504  22.3123 337.8606 15.12878232411110
ESEO                    
1 43792U 18099AL  26160.06477302  .00001616  00000+0  12032-3 0  9990
2 43792  97.3965 197.8007 0012170   7.5925 352.5483 15.04214984410583
THEA                    
1 43796U 18099AQ  26160.18330916  .00015396  00000+0  45891-3 0  9995
2 43796  97.4443 229.7992 0005972 319.1795  40.9000 15.34744351411466
ASTROCAST 0.1           
1 43798U 18099AS  26160.12323913  .00032371  00000+0  59815-3 0  9993
2 43798  97.4377 238.3723 0004498 234.1046 125.9788 15.49002166413184
JY1SAT (JO-97)          
1 43803U 18099AX  26160.13509799  .00014955  00000+0  46531-3 0  9998
2 43803  97.4132 222.9432 0004209 303.3283  56.7556 15.33397143412399
SUOMI-100               
1 43804U 18099AY  26160.08758941  .00009244  00000+0  33836-3 0  9997
2 43804  97.4188 220.5119 0008531 313.2979  46.7548 15.28231571412184
CENTAURI-1              
1 43809U 18099BD  26160.08919976  .00004970  00000+0  25954-3 0  9992
2 43809  97.4224 211.9829 0013943   3.0927 357.0389 15.16284228411276
GLOBAL-2                
1 43812U 18099BG  26160.11565682  .00003354  00000+0  21810-3 0  9993
2 43812  97.3561 196.9649 0006175 167.3470 192.7915 15.08624266410696
SEAHAWK-1               
1 43820U 18099BQ  26160.11930642  .00007303  00000+0  31629-3 0  9991
2 43820  97.3962 212.7283 0007441 348.2898  11.8164 15.22675876411307
SAUDISAT 5A             
1 43831U 18102A   26160.17541038  .00004795  00000+0  17818-3 0  9997
2 43831  97.3071 221.9110 0010426 154.0997 206.0766 15.27963887414453
SAUDISAT 5B             
1 43833U 18102C   26160.19561184  .00004483  00000+0  16543-3 0  9993
2 43833  97.3179 224.9860 0011068 156.6200 203.5545 15.28225174414578
ISAT                    
1 43879U 18111D   26159.78373553  .00093925  00000+0  99554-3 0  9999
2 43879  97.5884  94.3673 0002010  49.8617 310.2817 15.63806706409854
UWE-4                   
1 43880U 18111E   26159.73543037  .00034399  00000+0  71406-3 0  9998
2 43880  97.5854  87.7396 0007085  15.0599 345.0859 15.45597672409471
D-STAR ONE (SPARROW)    
1 43881U 18111F   26159.79882542  .00145912  00000+0  10994-2 0  9990
2 43881  97.6116  99.8565 0004819 100.2309 259.9497 15.72054596410054
JILIN-1 09              
1 43943U 19005B   26160.15112117  .00004272  00000+0  19897-3 0  9993
2 43943  97.4731 255.1831 0003759 110.5781 249.5857 15.20443868407921
JILIN-1 10              
1 43946U 19005E   26160.19061706  .00004815  00000+0  19215-3 0  9994
2 43946  97.4775 258.9959 0006803 313.5928  46.4745 15.25636864408099
EGYPTSAT-A (MISRSAT-A)  
1 44047U 19008A   26160.19171514  .00000474  00000+0  82753-4 0  9994
2 44047  98.0097 225.0632 0001193  88.6753 271.4591 14.72297709392062
EMISAT                  
1 44078U 19018A   26160.17397537  .00000253  00000+0  87311-4 0  9992
2 44078  98.4645 219.0181 0017352 240.2795 119.6669 14.43683815378908
JILIN-1 GAOFEN 3A       
1 44312U 19032C   26160.13295465  .00010530  00000+0  33866-3 0  9996
2 44312  44.9757  41.2577 0006467 257.0312 102.9851 15.32455129386607
WT 1B                   
1 44316U 19032G   26160.15355853  .00009552  00000+0  36360-3 0  9994
2 44316  44.9729 104.7844 0009342 207.6206 152.4181 15.27028581385854
PROX-1                  
1 44339U 19036A   26158.75163262  .00013430  00000+0  13165-2 0  9994
2 44339  23.9933 177.2711 0005354 281.8651  78.1248 14.90390005372067
NPSAT1                  
1 44340U 19036B   26159.99662503  .00004393  00000+0  60957-3 0  9995
2 44340  23.9995 271.1035 0007903 114.6467 245.4852 14.74509476371289
